{"type":"FeatureCollection","features":[{"type":"Feature","geometry":{"type":"Point","coordinates":[2.168720219,41.38563194]},"properties":{"name":"Barcelona - Plaça Catalunya","color":"#797FBC","routes":"L6,S1,S2,L7"}},{"type":"Feature","geometry":{"type":"Point","coordinates":[2.158030869,41.39281434]},"properties":{"name":"Provença","color":"#797FBC","routes":"L6,L7,S1,S2"}},{"type":"Feature","geometry":{"type":"Point","coordinates":[2.152662325,41.39909823]},"properties":{"name":"Gràcia","color":"#797FBC","routes":"L6,S1,S2,L7"}},{"type":"Feature","geometry":{"type":"Point","coordinates":[2.147133783,41.40106608]},"properties":{"name":"Sant Gervasi","color":"#797FBC","routes":"L6,S1,S2"}},{"type":"Feature","geometry":{"type":"Point","coordinates":[2.142346041,41.39852644]},"properties":{"name":"Muntaner","color":"#797FBC","routes":"L6,S1,S2"}},{"type":"Feature","geometry":{"type":"Point","coordinates":[2.136433966,41.39781569]},"properties":{"name":"La Bonanova","color":"#797FBC","routes":"L6,S1,S2"}},{"type":"Feature","geometry":{"type":"Point","coordinates":[2.130811822,41.39780042]},"properties":{"name":"Les Tres Torres","color":"#797FBC","routes":"L6,S1,S2"}},{"type":"Feature","geometry":{"type":"Point","coordinates":[2.125574875,41.39849938]},"properties":{"name":"Sarrià","color":"#797FBC","routes":"L6,S1,S2,L12"}},{"type":"Feature","geometry":{"type":"Point","coordinates":[2.118932325,41.39874599]},"properties":{"name":"Reina Elisenda","color":"#b2aed3","routes":"L12"}},{"type":"Feature","geometry":{"type":"Point","coordinates":[2.146754722,41.4016938]},"properties":{"name":"Pl. Molina","color":"#B2600B","routes":"L7"}},{"type":"Feature","geometry":{"type":"Point","coordinates":[2.142759094,41.40351065]},"properties":{"name":"Pàdua","color":"#B2600B","routes":"L7"}},{"type":"Feature","geometry":{"type":"Point","coordinates":[2.139151477,41.40582569]},"properties":{"name":"El Putxet","color":"#B2600B","routes":"L7"}},{"type":"Feature","geometry":{"type":"Point","coordinates":[2.137162791,41.40964799]},"properties":{"name":"Av. Tibidabo","color":"#B2600B","routes":"L7"}},{"type":"Feature","geometry":{"type":"Point","coordinates":[2.111181541,41.40921616]},"properties":{"name":"Peu del Funicular","color":"#EF7900","routes":"S1,S2"}},{"type":"Feature","geometry":{"type":"Point","coordinates":[2.1058163381683,41.414111713828]},"properties":{"name":"Vallvidrera Superior","color":"#0A57A3","routes":"FV"}},{"type":"Feature","geometry":{"type":"Point","coordinates":[2.096936777,41.42009441]},"properties":{"name":"Baixador de Vallvidrera","color":"#EF7900","routes":"S1,S2"}},{"type":"Feature","geometry":{"type":"Point","coordinates":[2.0916176,41.42740264]},"properties":{"name":"Les Planes","color":"#EF7900","routes":"S1,S2"}},{"type":"Feature","geometry":{"type":"Point","coordinates":[2.073166144,41.44487408]},"properties":{"name":"La Floresta","color":"#EF7900","routes":"S1,S2"}},{"type":"Feature","geometry":{"type":"Point","coordinates":[2.06831203,41.45784156]},"properties":{"name":"Valldoreix","color":"#EF7900","routes":"S1,S2"}},{"type":"Feature","geometry":{"type":"Point","coordinates":[2.078203288,41.46791038]},"properties":{"name":"Sant Cugat Centre","color":"#EF7900","routes":"S1,S2"}},{"type":"Feature","geometry":{"type":"Point","coordinates":[2.061380927,41.46936873]},"properties":{"name":"Mira-Sol","color":"#EF7900","routes":"S1"}},{"type":"Feature","geometry":{"type":"Point","coordinates":[2.046514894,41.47620923]},"properties":{"name":"Hospital General","color":"#EF7900","routes":"S1"}},{"type":"Feature","geometry":{"type":"Point","coordinates":[2.031357969,41.48628798]},"properties":{"name":"Rubí Centre","color":"#EF7900","routes":"S1"}},{"type":"Feature","geometry":{"type":"Point","coordinates":[2.033582202,41.52846982]},"properties":{"name":"Les Fonts","color":"#EF7900","routes":"S1"}},{"type":"Feature","geometry":{"type":"Point","coordinates":[2.007525272,41.55974631]},"properties":{"name":"Terrassa - Rambla","color":"#EF7900","routes":"S1"}},{"type":"Feature","geometry":{"type":"Point","coordinates":[2.072928,41.481248]},"properties":{"name":"Volpelleres","color":"#88BB0B","routes":"S2"}},{"type":"Feature","geometry":{"type":"Point","coordinates":[2.076498641,41.49015388]},"properties":{"name":"Sant Joan","color":"#88BB0B","routes":"S2"}},{"type":"Feature","geometry":{"type":"Point","coordinates":[2.090556583,41.50085844]},"properties":{"name":"Bellaterra","color":"#88BB0B","routes":"S2"}},{"type":"Feature","geometry":{"type":"Point","coordinates":[2.102510441,41.50285282]},"properties":{"name":"Universitat Autònoma","color":"#88BB0B","routes":"S2"}},{"type":"Feature","geometry":{"type":"Point","coordinates":[2.088722533,41.52999155]},"properties":{"name":"Sant Quirze","color":"#88BB0B","routes":"S2"}},{"type":"Feature","geometry":{"type":"Point","coordinates":[2.0190489,41.5633063]},"properties":{"name":"Vallparadís Universitat","color":"#EF7900","routes":"S1"}},{"type":"Feature","geometry":{"type":"Point","coordinates":[2.015487,41.5701675]},"properties":{"name":"Terrassa  Estació del nord","color":"#EF7900","routes":"S1"}},{"type":"Feature","geometry":{"type":"Point","coordinates":[2.0134592,41.5801339]},"properties":{"name":"Terrassa Nacions Unides","color":"#EF7900","routes":"S1"}},{"type":"Feature","geometry":{"type":"Point","coordinates":[2.148458333,41.3747199]},"properties":{"name":"Barcelona - Plaça Espanya","color":"#E274AA","routes":"L8,S8,R5,S4,R63,R6,S3,R53,R60,S9,R50"}},{"type":"Feature","geometry":{"type":"Point","coordinates":[2.138879447,41.36748768]},"properties":{"name":"Magòria La Campana","color":"#E274AA","routes":"L8,S8,R5,S4,R6,S3,S9,R53,R63"}},{"type":"Feature","geometry":{"type":"Point","coordinates":[2.130023266,41.36090867]},"properties":{"name":"Ildefons Cerdà","color":"#E274AA","routes":"L8,S8,R5,S4,R6,S3,R50,R60,S9,R53,R63"}},{"type":"Feature","geometry":{"type":"Point","coordinates":[2.117431558,41.35488589]},"properties":{"name":"Gornal","color":"#E274AA","routes":"L8,S8,R5,S4,R6,S3,R50,R60,S9,R53,R63"}},{"type":"Feature","geometry":{"type":"Point","coordinates":[2.10991665,41.36070098]},"properties":{"name":"Sant Josep","color":"#E274AA","routes":"L8,S8,R5,S4,R6,S3,R50,R60,S9,R53,R63"}},{"type":"Feature","geometry":{"type":"Point","coordinates":[2.102709519,41.35793378]},"properties":{"name":"L'Hospitalet Av. Carrilet","color":"#E274AA","routes":"L8,S8,R5,S4,R6,S3,R50,R60,S9,R53,R63"}},{"type":"Feature","geometry":{"type":"Point","coordinates":[2.085251402,41.35306747]},"properties":{"name":"Almeda","color":"#E274AA","routes":"L8,S8,R5,S4,R6,S3,R50,R60,S9,R53,R63"}},{"type":"Feature","geometry":{"type":"Point","coordinates":[2.071263627,41.35147828]},"properties":{"name":"Cornellà Riera","color":"#E274AA","routes":"L8,S8,R5,S4,R6,S3,R50,R60,S9,R53,R63"}},{"type":"Feature","geometry":{"type":"Point","coordinates":[2.042855988,41.34856143]},"properties":{"name":"Sant Boi","color":"#E274AA","routes":"L8,S8,R5,S4,R6,S3,R50,R60,S9,R53,R63"}},{"type":"Feature","geometry":{"type":"Point","coordinates":[2.124199344,41.35655892]},"properties":{"name":"Europa | Fira","color":"#E274AA","routes":"L8,S8,R5,S4,R6,S3,R50,R60,S9,R53,R63"}},{"type":"Feature","geometry":{"type":"Point","coordinates":[1.925294975,41.4792845]},"properties":{"name":"Martorell Central","color":"#49C0DE","routes":"S8,R5,S4,R6,R50,R60,R53,R63"}},{"type":"Feature","geometry":{"type":"Point","coordinates":[2.031859416,41.36386336]},"properties":{"name":"Colònia Güell","color":"#49C0DE","routes":"S8,S4,S3,S9,R53,R63"}},{"type":"Feature","geometry":{"type":"Point","coordinates":[2.035276936,41.35751473]},"properties":{"name":"Molí Nou - Ciutat Cooperativa","color":"#E274AA","routes":"L8,S8,R5,S4,R6,S3,S9,R53,R63"}},{"type":"Feature","geometry":{"type":"Point","coordinates":[2.023520241,41.37064766]},"properties":{"name":"Santa Coloma de Cervelló","color":"#49C0DE","routes":"S8,S4,R6,S3,R60,S9,R53,R63"}},{"type":"Feature","geometry":{"type":"Point","coordinates":[2.012398952,41.38810839]},"properties":{"name":"Sant Vicenç dels Horts","color":"#49C0DE","routes":"S8,R5,S4,R6,S3,R50,R60,S9,R53,R63"}},{"type":"Feature","geometry":{"type":"Point","coordinates":[2.005346458,41.39882061]},"properties":{"name":"Can Ros","color":"#49C0DE","routes":"S8,R5,S4,R6,S3,S9,R53,R63"}},{"type":"Feature","geometry":{"type":"Point","coordinates":[2.001715183,41.40629238]},"properties":{"name":"Quatre Camins","color":"#49C0DE","routes":"S8,R5,S4,R6,R53,R63,S9"}},{"type":"Feature","geometry":{"type":"Point","coordinates":[1.995677605,41.42078685]},"properties":{"name":"Pallejà","color":"#49C0DE","routes":"S8,R5,S4,R6,R50,R53,R63"}},{"type":"Feature","geometry":{"type":"Point","coordinates":[1.973673502,41.44648001]},"properties":{"name":"Sant Andreu de la Barca","color":"#49C0DE","routes":"S8,R5,S4,R6,R50,R60,R53,R63"}},{"type":"Feature","geometry":{"type":"Point","coordinates":[1.9622947,41.45588074]},"properties":{"name":"El Palau","color":"#49C0DE","routes":"S8,R5,S4,R6,R53,R63"}},{"type":"Feature","geometry":{"type":"Point","coordinates":[1.938956855,41.4758714]},"properties":{"name":"Martorell Vila","color":"#49C0DE","routes":"S8,S4,R53,R63"}},{"type":"Feature","geometry":{"type":"Point","coordinates":[1.918677519,41.48396936]},"properties":{"name":"Martorell Enllaç","color":"#49C0DE","routes":"S8,R5,S4,R6,R53,R63"}},{"type":"Feature","geometry":{"type":"Point","coordinates":[1.906805399,41.52256137]},"properties":{"name":"Abrera","color":"#3dbfc3","routes":"R53,R5,S4,R50"}},{"type":"Feature","geometry":{"type":"Point","coordinates":[1.888618922,41.54105908]},"properties":{"name":"Olesa de Montserrat","color":"#3dbfc3","routes":"R53,R5,S4,R50"}},{"type":"Feature","geometry":{"type":"Point","coordinates":[1.853361605,41.59119812]},"properties":{"name":"Montserrat-Aeri","color":"#3dbfc3","routes":"R53,R5"}},{"type":"Feature","geometry":{"type":"Point","coordinates":[1.84919403,41.6103596]},"properties":{"name":"Monistrol de Montserrat","color":"#3dbfc3","routes":"R53,R5,R50,MM"}},{"type":"Feature","geometry":{"type":"Point","coordinates":[1.854793522,41.64051706]},"properties":{"name":"Castellbell i El Vilar","color":"#3dbfc3","routes":"R53,R5"}},{"type":"Feature","geometry":{"type":"Point","coordinates":[1.8596058,41.66791016]},"properties":{"name":"Sant Vicenç-Castellgalí","color":"#3dbfc3","routes":"R53,R5,R50"}},{"type":"Feature","geometry":{"type":"Point","coordinates":[1.83398595,41.72436991]},"properties":{"name":"Manresa Viladordis","color":"#3dbfc3","routes":"R53,R5,R50"}},{"type":"Feature","geometry":{"type":"Point","coordinates":[1.832986,41.73224]},"properties":{"name":"Manresa-Alta","color":"#3dbfc3","routes":"R53,R5,R50"}},{"type":"Feature","geometry":{"type":"Point","coordinates":[1.827904,41.731457]},"properties":{"name":"Manresa-Baixador","color":"#3dbfc3","routes":"R53,R5,R50"}},{"type":"Feature","geometry":{"type":"Point","coordinates":[1.8724438,41.49767605]},"properties":{"name":"Sant Esteve Sesrovires","color":"#b3b3b3","routes":"R63,R6,R60"}},{"type":"Feature","geometry":{"type":"Point","coordinates":[1.838788972,41.5017639]},"properties":{"name":"La Beguda","color":"#b3b3b3","routes":"R63,R6"}},{"type":"Feature","geometry":{"type":"Point","coordinates":[1.830813063,41.50222357]},"properties":{"name":"Can Parellada","color":"#b3b3b3","routes":"R63,R6"}},{"type":"Feature","geometry":{"type":"Point","coordinates":[1.812625072,41.502884]},"properties":{"name":"Masquefa","color":"#b3b3b3","routes":"R63,R6,R60"}},{"type":"Feature","geometry":{"type":"Point","coordinates":[1.75450443,41.52591339]},"properties":{"name":"Piera","color":"#b3b3b3","routes":"R63,R6,R60"}},{"type":"Feature","geometry":{"type":"Point","coordinates":[1.709010719,41.52025979]},"properties":{"name":"Vallbona d'Anoia","color":"#b3b3b3","routes":"R63,R6,R60"}},{"type":"Feature","geometry":{"type":"Point","coordinates":[1.695130725,41.52153533]},"properties":{"name":"Capellades","color":"#b3b3b3","routes":"R63,R6,R60"}},{"type":"Feature","geometry":{"type":"Point","coordinates":[1.677906247,41.55461094]},"properties":{"name":"La Pobla de Claramunt","color":"#b3b3b3","routes":"R63,R6,R60"}},{"type":"Feature","geometry":{"type":"Point","coordinates":[1.642009216,41.57331472]},"properties":{"name":"Vilanova del Camí","color":"#b3b3b3","routes":"R63,R6,R60"}},{"type":"Feature","geometry":{"type":"Point","coordinates":[1.629951133,41.57802651]},"properties":{"name":"Igualada","color":"#b3b3b3","routes":"R63,R6,R60"}},{"type":"Feature","geometry":{"type":"Point","coordinates":[1.843723316,41.61562791]},"properties":{"name":"Monistrol-Vila","color":"#000000","routes":"MM"}},{"type":"Feature","geometry":{"type":"Point","coordinates":[1.836497527,41.59225373]},"properties":{"name":"Montserrat","color":"#000000","routes":"MM"}},{"type":"Feature","geometry":{"type":"Point","coordinates":[0.633672,41.620098]},"properties":{"name":"Lleida","color":"#FF8000","routes":"RL2,RL1"}},{"type":"Feature","geometry":{"type":"Point","coordinates":[0.686458,41.654738]},"properties":{"name":"Alcoletge","color":"#FF8000","routes":"RL2,RL1"}},{"type":"Feature","geometry":{"type":"Point","coordinates":[0.727903,41.687347]},"properties":{"name":"Vilanova de la Barca","color":"#FF8000","routes":"RL2,RL1"}},{"type":"Feature","geometry":{"type":"Point","coordinates":[0.764899,41.717644]},"properties":{"name":"Térmens","color":"#FF8000","routes":"RL2,RL1"}},{"type":"Feature","geometry":{"type":"Point","coordinates":[0.805247,41.755094]},"properties":{"name":"Vallfogona de Balaguer","color":"#FF8000","routes":"RL2,RL1"}},{"type":"Feature","geometry":{"type":"Point","coordinates":[0.814761,41.789215]},"properties":{"name":"Balaguer","color":"#FF8000","routes":"RL2,RL1"}},{"type":"Feature","geometry":{"type":"Point","coordinates":[0.812079,41.823301]},"properties":{"name":"Gerb","color":"#FF8000","routes":"RL2"}},{"type":"Feature","geometry":{"type":"Point","coordinates":[0.832571,41.866379]},"properties":{"name":"St. Llorenç de Montgai","color":"#FF8000","routes":"RL2"}},{"type":"Feature","geometry":{"type":"Point","coordinates":[0.830401,41.91207]},"properties":{"name":"Vilanova de la Sal","color":"#FF8000","routes":"RL2"}},{"type":"Feature","geometry":{"type":"Point","coordinates":[0.852312,41.93156]},"properties":{"name":"Santa Linya","color":"#FF8000","routes":"RL2"}},{"type":"Feature","geometry":{"type":"Point","coordinates":[0.851596,42.006741]},"properties":{"name":"Àger","color":"#FF8000","routes":"RL2"}},{"type":"Feature","geometry":{"type":"Point","coordinates":[0.882707,42.058631]},"properties":{"name":"Cellers-Llimiana","color":"#FF8000","routes":"RL2"}},{"type":"Feature","geometry":{"type":"Point","coordinates":[0.88809,42.101399]},"properties":{"name":"Guardia de Tremp","color":"#FF8000","routes":"RL2"}},{"type":"Feature","geometry":{"type":"Point","coordinates":[0.892435,42.147002]},"properties":{"name":"Palau de Noguera","color":"#FF8000","routes":"RL2"}},{"type":"Feature","geometry":{"type":"Point","coordinates":[0.891057,42.167348]},"properties":{"name":"Tremp","color":"#FF8000","routes":"RL2"}},{"type":"Feature","geometry":{"type":"Point","coordinates":[0.940463,42.206835]},"properties":{"name":"Salàs de Pallars","color":"#FF8000","routes":"RL2"}},{"type":"Feature","geometry":{"type":"Point","coordinates":[0.965917,42.239877]},"properties":{"name":"La Pobla de Segur","color":"#FF8000","routes":"RL2"}},{"type":"Feature","geometry":{"type":"Point","coordinates":[2.111263,41.409328]},"properties":{"name":"Vallvidrera Inferior","color":"#0A57A3","routes":"FV"}},{"type":"Feature","geometry":{"type":"Point","coordinates":[2.100463866,41.542522966]},"properties":{"name":"Can Feu - Gràcia","color":"#88BB0B","routes":"S2"}},{"type":"Feature","geometry":{"type":"Point","coordinates":[2.1088815,41.5474198]},"properties":{"name":"Sabadell Plaça Major","color":"#88BB0B","routes":"S2"}},{"type":"Feature","geometry":{"type":"Point","coordinates":[2.100385,41.554954]},"properties":{"name":"La Creu Alta","color":"#88BB0B","routes":"S2"}},{"type":"Feature","geometry":{"type":"Point","coordinates":[2.096657,41.561225]},"properties":{"name":"Sabadell Nord","color":"#88BB0B","routes":"S2"}},{"type":"Feature","geometry":{"type":"Point","coordinates":[2.089499,41.571291]},"properties":{"name":"Sabadell Parc del Nord","color":"#88BB0B","routes":"S2"}},{"type":"Feature","geometry":{"type":"Point","coordinates":[2.1547279163581,42.397328515116]},"properties":{"name":"Nuria","color":"#888888","routes":""}},{"type":"Feature","geometry":{"type":"Point","coordinates":[2.1663511165341,42.351513859462]},"properties":{"name":"Queralbs","color":"#888888","routes":""}},{"type":"Feature","geometry":{"type":"Point","coordinates":[2.1663747137233,42.30040204821]},"properties":{"name":"Ribes-Enllaç","color":"#888888","routes":""}},{"type":"Feature","geometry":{"type":"Point","coordinates":[2.1721241533237,42.308798764827]},"properties":{"name":"Ribes-Vila","color":"#888888","routes":""}},{"type":"Feature","geometry":{"type":"Point","coordinates":[0.652806,41.622808]},"properties":{"name":"Polígon industrial del Segre","color":"#FF8000","routes":"RL2,RL1"}}]}